<?xml version="1.0" encoding="UTF-8"?>
<gpx version="1.1" creator="race-pace-app demo" xmlns="http://www.topografix.com/GPX/1/1">
  <metadata><name>Demo recorded run</name><time>2026-04-20T14:00:00Z</time></metadata>
  <trk><name>Demo recorded run</name><trkseg>
    <trkpt lat="42.229600" lon="-71.522600"><time>2026-04-20T14:00:00Z</time></trkpt>
    <trkpt lat="42.229855" lon="-71.522023"><time>2026-04-20T14:00:20Z</time></trkpt>
    <trkpt lat="42.230110" lon="-71.521447"><time>2026-04-20T14:00:40Z</time></trkpt>
    <trkpt lat="42.230365" lon="-71.520870"><time>2026-04-20T14:00:59Z</time></trkpt>
    <trkpt lat="42.230620" lon="-71.520293"><time>2026-04-20T14:01:17Z</time></trkpt>
    <trkpt lat="42.230875" lon="-71.519717"><time>2026-04-20T14:01:33Z</time></trkpt>
    <trkpt lat="42.231130" lon="-71.519140"><time>2026-04-20T14:01:48Z</time></trkpt>
    <trkpt lat="42.231385" lon="-71.518563"><time>2026-04-20T14:02:02Z</time></trkpt>
    <trkpt lat="42.231640" lon="-71.517987"><time>2026-04-20T14:02:15Z</time></trkpt>
    <trkpt lat="42.231895" lon="-71.517410"><time>2026-04-20T14:02:28Z</time></trkpt>
    <trkpt lat="42.232150" lon="-71.516833"><time>2026-04-20T14:02:42Z</time></trkpt>
    <trkpt lat="42.232405" lon="-71.516257"><time>2026-04-20T14:02:56Z</time></trkpt>
    <trkpt lat="42.232660" lon="-71.515680"><time>2026-04-20T14:03:08Z</time></trkpt>
    <trkpt lat="42.232915" lon="-71.515103"><time>2026-04-20T14:03:21Z</time></trkpt>
    <trkpt lat="42.233170" lon="-71.514527"><time>2026-04-20T14:03:33Z</time></trkpt>
    <trkpt lat="42.233425" lon="-71.513950"><time>2026-04-20T14:03:53Z</time></trkpt>
    <trkpt lat="42.233680" lon="-71.513373"><time>2026-04-20T14:04:20Z</time></trkpt>
    <trkpt lat="42.233935" lon="-71.512797"><time>2026-04-20T14:04:38Z</time></trkpt>
    <trkpt lat="42.234190" lon="-71.512220"><time>2026-04-20T14:04:53Z</time></trkpt>
    <trkpt lat="42.234445" lon="-71.511643"><time>2026-04-20T14:05:04Z</time></trkpt>
    <trkpt lat="42.234700" lon="-71.511067"><time>2026-04-20T14:05:16Z</time></trkpt>
    <trkpt lat="42.234955" lon="-71.510490"><time>2026-04-20T14:05:32Z</time></trkpt>
    <trkpt lat="42.235210" lon="-71.509913"><time>2026-04-20T14:05:47Z</time></trkpt>
    <trkpt lat="42.235465" lon="-71.509337"><time>2026-04-20T14:06:03Z</time></trkpt>
    <trkpt lat="42.235720" lon="-71.508760"><time>2026-04-20T14:06:19Z</time></trkpt>
    <trkpt lat="42.235975" lon="-71.508183"><time>2026-04-20T14:06:37Z</time></trkpt>
    <trkpt lat="42.236230" lon="-71.507607"><time>2026-04-20T14:07:02Z</time></trkpt>
    <trkpt lat="42.236485" lon="-71.507030"><time>2026-04-20T14:07:30Z</time></trkpt>
    <trkpt lat="42.236740" lon="-71.506453"><time>2026-04-20T14:07:44Z</time></trkpt>
    <trkpt lat="42.236995" lon="-71.505877"><time>2026-04-20T14:07:57Z</time></trkpt>
    <trkpt lat="42.237250" lon="-71.505300"><time>2026-04-20T14:08:20Z</time></trkpt>
    <trkpt lat="42.237505" lon="-71.504723"><time>2026-04-20T14:08:43Z</time></trkpt>
    <trkpt lat="42.237760" lon="-71.504147"><time>2026-04-20T14:09:05Z</time></trkpt>
    <trkpt lat="42.238015" lon="-71.503570"><time>2026-04-20T14:09:30Z</time></trkpt>
    <trkpt lat="42.238270" lon="-71.502993"><time>2026-04-20T14:09:58Z</time></trkpt>
    <trkpt lat="42.238525" lon="-71.502417"><time>2026-04-20T14:10:19Z</time></trkpt>
    <trkpt lat="42.238780" lon="-71.501840"><time>2026-04-20T14:10:36Z</time></trkpt>
    <trkpt lat="42.239035" lon="-71.501263"><time>2026-04-20T14:10:50Z</time></trkpt>
    <trkpt lat="42.239290" lon="-71.500687"><time>2026-04-20T14:11:02Z</time></trkpt>
    <trkpt lat="42.239545" lon="-71.500110"><time>2026-04-20T14:11:17Z</time></trkpt>
    <trkpt lat="42.239800" lon="-71.499533"><time>2026-04-20T14:11:32Z</time></trkpt>
    <trkpt lat="42.240055" lon="-71.498957"><time>2026-04-20T14:11:47Z</time></trkpt>
    <trkpt lat="42.240310" lon="-71.498380"><time>2026-04-20T14:12:02Z</time></trkpt>
    <trkpt lat="42.240565" lon="-71.497803"><time>2026-04-20T14:12:15Z</time></trkpt>
    <trkpt lat="42.240820" lon="-71.497227"><time>2026-04-20T14:12:30Z</time></trkpt>
    <trkpt lat="42.241075" lon="-71.496650"><time>2026-04-20T14:12:45Z</time></trkpt>
    <trkpt lat="42.241330" lon="-71.496073"><time>2026-04-20T14:13:00Z</time></trkpt>
    <trkpt lat="42.241585" lon="-71.495497"><time>2026-04-20T14:13:16Z</time></trkpt>
    <trkpt lat="42.241840" lon="-71.494920"><time>2026-04-20T14:13:34Z</time></trkpt>
    <trkpt lat="42.242095" lon="-71.494343"><time>2026-04-20T14:13:51Z</time></trkpt>
    <trkpt lat="42.242350" lon="-71.493767"><time>2026-04-20T14:14:10Z</time></trkpt>
    <trkpt lat="42.242605" lon="-71.493190"><time>2026-04-20T14:14:30Z</time></trkpt>
    <trkpt lat="42.242860" lon="-71.492613"><time>2026-04-20T14:14:50Z</time></trkpt>
    <trkpt lat="42.243115" lon="-71.492037"><time>2026-04-20T14:15:09Z</time></trkpt>
    <trkpt lat="42.243370" lon="-71.491460"><time>2026-04-20T14:15:26Z</time></trkpt>
    <trkpt lat="42.243625" lon="-71.490883"><time>2026-04-20T14:15:40Z</time></trkpt>
    <trkpt lat="42.243880" lon="-71.490307"><time>2026-04-20T14:15:54Z</time></trkpt>
    <trkpt lat="42.244135" lon="-71.489730"><time>2026-04-20T14:16:07Z</time></trkpt>
    <trkpt lat="42.244390" lon="-71.489153"><time>2026-04-20T14:16:20Z</time></trkpt>
    <trkpt lat="42.244645" lon="-71.488577"><time>2026-04-20T14:16:32Z</time></trkpt>
    <trkpt lat="42.244900" lon="-71.488000"><time>2026-04-20T14:16:44Z</time></trkpt>
    <trkpt lat="42.245172" lon="-71.487590"><time>2026-04-20T14:16:56Z</time></trkpt>
    <trkpt lat="42.245443" lon="-71.487180"><time>2026-04-20T14:17:08Z</time></trkpt>
    <trkpt lat="42.245715" lon="-71.486770"><time>2026-04-20T14:17:23Z</time></trkpt>
    <trkpt lat="42.245987" lon="-71.486360"><time>2026-04-20T14:17:38Z</time></trkpt>
    <trkpt lat="42.246258" lon="-71.485950"><time>2026-04-20T14:17:54Z</time></trkpt>
    <trkpt lat="42.246530" lon="-71.485540"><time>2026-04-20T14:18:10Z</time></trkpt>
    <trkpt lat="42.246802" lon="-71.485130"><time>2026-04-20T14:18:26Z</time></trkpt>
    <trkpt lat="42.247073" lon="-71.484720"><time>2026-04-20T14:18:41Z</time></trkpt>
    <trkpt lat="42.247345" lon="-71.484310"><time>2026-04-20T14:19:00Z</time></trkpt>
    <trkpt lat="42.247617" lon="-71.483900"><time>2026-04-20T14:19:21Z</time></trkpt>
    <trkpt lat="42.247888" lon="-71.483490"><time>2026-04-20T14:19:44Z</time></trkpt>
    <trkpt lat="42.248160" lon="-71.483080"><time>2026-04-20T14:20:13Z</time></trkpt>
    <trkpt lat="42.248432" lon="-71.482670"><time>2026-04-20T14:20:40Z</time></trkpt>
    <trkpt lat="42.248703" lon="-71.482260"><time>2026-04-20T14:21:03Z</time></trkpt>
    <trkpt lat="42.248975" lon="-71.481850"><time>2026-04-20T14:21:26Z</time></trkpt>
    <trkpt lat="42.249247" lon="-71.481440"><time>2026-04-20T14:21:40Z</time></trkpt>
    <trkpt lat="42.249518" lon="-71.481030"><time>2026-04-20T14:21:54Z</time></trkpt>
    <trkpt lat="42.249790" lon="-71.480620"><time>2026-04-20T14:22:05Z</time></trkpt>
    <trkpt lat="42.250062" lon="-71.480210"><time>2026-04-20T14:22:15Z</time></trkpt>
    <trkpt lat="42.250333" lon="-71.479800"><time>2026-04-20T14:22:25Z</time></trkpt>
    <trkpt lat="42.250605" lon="-71.479390"><time>2026-04-20T14:22:37Z</time></trkpt>
    <trkpt lat="42.250877" lon="-71.478980"><time>2026-04-20T14:22:48Z</time></trkpt>
    <trkpt lat="42.251148" lon="-71.478570"><time>2026-04-20T14:22:58Z</time></trkpt>
    <trkpt lat="42.251420" lon="-71.478160"><time>2026-04-20T14:23:08Z</time></trkpt>
    <trkpt lat="42.251692" lon="-71.477750"><time>2026-04-20T14:23:17Z</time></trkpt>
    <trkpt lat="42.251963" lon="-71.477340"><time>2026-04-20T14:23:26Z</time></trkpt>
    <trkpt lat="42.252235" lon="-71.476930"><time>2026-04-20T14:23:36Z</time></trkpt>
    <trkpt lat="42.252507" lon="-71.476520"><time>2026-04-20T14:23:45Z</time></trkpt>
    <trkpt lat="42.252778" lon="-71.476110"><time>2026-04-20T14:23:55Z</time></trkpt>
    <trkpt lat="42.253050" lon="-71.475700"><time>2026-04-20T14:24:06Z</time></trkpt>
    <trkpt lat="42.253322" lon="-71.475290"><time>2026-04-20T14:24:18Z</time></trkpt>
    <trkpt lat="42.253593" lon="-71.474880"><time>2026-04-20T14:24:30Z</time></trkpt>
    <trkpt lat="42.253865" lon="-71.474470"><time>2026-04-20T14:24:43Z</time></trkpt>
    <trkpt lat="42.254137" lon="-71.474060"><time>2026-04-20T14:24:54Z</time></trkpt>
    <trkpt lat="42.254408" lon="-71.473650"><time>2026-04-20T14:25:05Z</time></trkpt>
    <trkpt lat="42.254680" lon="-71.473240"><time>2026-04-20T14:25:20Z</time></trkpt>
    <trkpt lat="42.254952" lon="-71.472830"><time>2026-04-20T14:25:36Z</time></trkpt>
    <trkpt lat="42.255223" lon="-71.472420"><time>2026-04-20T14:25:47Z</time></trkpt>
    <trkpt lat="42.255495" lon="-71.472010"><time>2026-04-20T14:25:57Z</time></trkpt>
    <trkpt lat="42.255767" lon="-71.471600"><time>2026-04-20T14:26:07Z</time></trkpt>
    <trkpt lat="42.256038" lon="-71.471190"><time>2026-04-20T14:26:16Z</time></trkpt>
    <trkpt lat="42.256310" lon="-71.470780"><time>2026-04-20T14:26:29Z</time></trkpt>
    <trkpt lat="42.256582" lon="-71.470370"><time>2026-04-20T14:26:47Z</time></trkpt>
    <trkpt lat="42.256853" lon="-71.469960"><time>2026-04-20T14:27:04Z</time></trkpt>
    <trkpt lat="42.257125" lon="-71.469550"><time>2026-04-20T14:27:17Z</time></trkpt>
    <trkpt lat="42.257397" lon="-71.469140"><time>2026-04-20T14:27:31Z</time></trkpt>
    <trkpt lat="42.257668" lon="-71.468730"><time>2026-04-20T14:27:45Z</time></trkpt>
    <trkpt lat="42.257940" lon="-71.468320"><time>2026-04-20T14:27:58Z</time></trkpt>
    <trkpt lat="42.258212" lon="-71.467910"><time>2026-04-20T14:28:11Z</time></trkpt>
    <trkpt lat="42.258483" lon="-71.467500"><time>2026-04-20T14:28:23Z</time></trkpt>
    <trkpt lat="42.258755" lon="-71.467090"><time>2026-04-20T14:28:35Z</time></trkpt>
    <trkpt lat="42.259027" lon="-71.466680"><time>2026-04-20T14:28:47Z</time></trkpt>
    <trkpt lat="42.259298" lon="-71.466270"><time>2026-04-20T14:28:59Z</time></trkpt>
    <trkpt lat="42.259570" lon="-71.465860"><time>2026-04-20T14:29:12Z</time></trkpt>
    <trkpt lat="42.259842" lon="-71.465450"><time>2026-04-20T14:29:25Z</time></trkpt>
    <trkpt lat="42.260113" lon="-71.465040"><time>2026-04-20T14:29:38Z</time></trkpt>
    <trkpt lat="42.260385" lon="-71.464630"><time>2026-04-20T14:29:51Z</time></trkpt>
    <trkpt lat="42.260657" lon="-71.464220"><time>2026-04-20T14:30:04Z</time></trkpt>
    <trkpt lat="42.260928" lon="-71.463810"><time>2026-04-20T14:30:16Z</time></trkpt>
    <trkpt lat="42.261200" lon="-71.463400"><time>2026-04-20T14:30:30Z</time></trkpt>
    <trkpt lat="42.261502" lon="-71.462613"><time>2026-04-20T14:30:51Z</time></trkpt>
    <trkpt lat="42.261803" lon="-71.461827"><time>2026-04-20T14:31:13Z</time></trkpt>
    <trkpt lat="42.262105" lon="-71.461040"><time>2026-04-20T14:31:36Z</time></trkpt>
    <trkpt lat="42.262407" lon="-71.460253"><time>2026-04-20T14:32:02Z</time></trkpt>
    <trkpt lat="42.262708" lon="-71.459467"><time>2026-04-20T14:32:35Z</time></trkpt>
    <trkpt lat="42.263010" lon="-71.458680"><time>2026-04-20T14:32:57Z</time></trkpt>
    <trkpt lat="42.263312" lon="-71.457893"><time>2026-04-20T14:33:24Z</time></trkpt>
    <trkpt lat="42.263613" lon="-71.457107"><time>2026-04-20T14:33:58Z</time></trkpt>
    <trkpt lat="42.263915" lon="-71.456320"><time>2026-04-20T14:34:40Z</time></trkpt>
    <trkpt lat="42.264217" lon="-71.455533"><time>2026-04-20T14:35:04Z</time></trkpt>
    <trkpt lat="42.264518" lon="-71.454747"><time>2026-04-20T14:35:22Z</time></trkpt>
    <trkpt lat="42.264820" lon="-71.453960"><time>2026-04-20T14:35:38Z</time></trkpt>
    <trkpt lat="42.265122" lon="-71.453173"><time>2026-04-20T14:35:54Z</time></trkpt>
    <trkpt lat="42.265423" lon="-71.452387"><time>2026-04-20T14:36:12Z</time></trkpt>
    <trkpt lat="42.265725" lon="-71.451600"><time>2026-04-20T14:36:30Z</time></trkpt>
    <trkpt lat="42.266027" lon="-71.450813"><time>2026-04-20T14:36:47Z</time></trkpt>
    <trkpt lat="42.266328" lon="-71.450027"><time>2026-04-20T14:37:09Z</time></trkpt>
    <trkpt lat="42.266630" lon="-71.449240"><time>2026-04-20T14:37:29Z</time></trkpt>
    <trkpt lat="42.266932" lon="-71.448453"><time>2026-04-20T14:37:52Z</time></trkpt>
    <trkpt lat="42.267233" lon="-71.447667"><time>2026-04-20T14:38:26Z</time></trkpt>
    <trkpt lat="42.267535" lon="-71.446880"><time>2026-04-20T14:38:55Z</time></trkpt>
    <trkpt lat="42.267837" lon="-71.446093"><time>2026-04-20T14:39:24Z</time></trkpt>
    <trkpt lat="42.268138" lon="-71.445307"><time>2026-04-20T14:39:53Z</time></trkpt>
    <trkpt lat="42.268440" lon="-71.444520"><time>2026-04-20T14:40:10Z</time></trkpt>
    <trkpt lat="42.268742" lon="-71.443733"><time>2026-04-20T14:40:47Z</time></trkpt>
    <trkpt lat="42.269043" lon="-71.442947"><time>2026-04-20T14:41:24Z</time></trkpt>
    <trkpt lat="42.269345" lon="-71.442160"><time>2026-04-20T14:41:52Z</time></trkpt>
    <trkpt lat="42.269647" lon="-71.441373"><time>2026-04-20T14:42:14Z</time></trkpt>
    <trkpt lat="42.269948" lon="-71.440587"><time>2026-04-20T14:42:35Z</time></trkpt>
    <trkpt lat="42.270250" lon="-71.439800"><time>2026-04-20T14:42:54Z</time></trkpt>
    <trkpt lat="42.270552" lon="-71.439013"><time>2026-04-20T14:43:10Z</time></trkpt>
    <trkpt lat="42.270853" lon="-71.438227"><time>2026-04-20T14:43:31Z</time></trkpt>
    <trkpt lat="42.271155" lon="-71.437440"><time>2026-04-20T14:43:56Z</time></trkpt>
    <trkpt lat="42.271457" lon="-71.436653"><time>2026-04-20T14:44:24Z</time></trkpt>
    <trkpt lat="42.271758" lon="-71.435867"><time>2026-04-20T14:44:53Z</time></trkpt>
    <trkpt lat="42.272060" lon="-71.435080"><time>2026-04-20T14:45:13Z</time></trkpt>
    <trkpt lat="42.272362" lon="-71.434293"><time>2026-04-20T14:45:30Z</time></trkpt>
    <trkpt lat="42.272663" lon="-71.433507"><time>2026-04-20T14:45:46Z</time></trkpt>
    <trkpt lat="42.272965" lon="-71.432720"><time>2026-04-20T14:46:07Z</time></trkpt>
    <trkpt lat="42.273267" lon="-71.431933"><time>2026-04-20T14:46:28Z</time></trkpt>
    <trkpt lat="42.273568" lon="-71.431147"><time>2026-04-20T14:46:49Z</time></trkpt>
    <trkpt lat="42.273870" lon="-71.430360"><time>2026-04-20T14:47:09Z</time></trkpt>
    <trkpt lat="42.274172" lon="-71.429573"><time>2026-04-20T14:47:31Z</time></trkpt>
    <trkpt lat="42.274473" lon="-71.428787"><time>2026-04-20T14:47:52Z</time></trkpt>
    <trkpt lat="42.274775" lon="-71.428000"><time>2026-04-20T14:48:15Z</time></trkpt>
    <trkpt lat="42.275077" lon="-71.427213"><time>2026-04-20T14:48:38Z</time></trkpt>
    <trkpt lat="42.275378" lon="-71.426427"><time>2026-04-20T14:49:01Z</time></trkpt>
    <trkpt lat="42.275680" lon="-71.425640"><time>2026-04-20T14:49:24Z</time></trkpt>
    <trkpt lat="42.275982" lon="-71.424853"><time>2026-04-20T14:49:45Z</time></trkpt>
    <trkpt lat="42.276283" lon="-71.424067"><time>2026-04-20T14:50:01Z</time></trkpt>
    <trkpt lat="42.276585" lon="-71.423280"><time>2026-04-20T14:50:24Z</time></trkpt>
    <trkpt lat="42.276887" lon="-71.422493"><time>2026-04-20T14:50:50Z</time></trkpt>
    <trkpt lat="42.277188" lon="-71.421707"><time>2026-04-20T14:51:15Z</time></trkpt>
    <trkpt lat="42.277490" lon="-71.420920"><time>2026-04-20T14:51:37Z</time></trkpt>
    <trkpt lat="42.277792" lon="-71.420133"><time>2026-04-20T14:51:58Z</time></trkpt>
    <trkpt lat="42.278093" lon="-71.419347"><time>2026-04-20T14:52:19Z</time></trkpt>
    <trkpt lat="42.278395" lon="-71.418560"><time>2026-04-20T14:52:40Z</time></trkpt>
    <trkpt lat="42.278697" lon="-71.417773"><time>2026-04-20T14:53:03Z</time></trkpt>
    <trkpt lat="42.278998" lon="-71.416987"><time>2026-04-20T14:53:25Z</time></trkpt>
    <trkpt lat="42.279300" lon="-71.416200"><time>2026-04-20T14:53:47Z</time></trkpt>
    <trkpt lat="42.279370" lon="-71.415088"><time>2026-04-20T14:54:13Z</time></trkpt>
    <trkpt lat="42.279440" lon="-71.413977"><time>2026-04-20T14:54:39Z</time></trkpt>
    <trkpt lat="42.279510" lon="-71.412865"><time>2026-04-20T14:55:07Z</time></trkpt>
    <trkpt lat="42.279580" lon="-71.411753"><time>2026-04-20T14:55:35Z</time></trkpt>
    <trkpt lat="42.279650" lon="-71.410642"><time>2026-04-20T14:56:03Z</time></trkpt>
    <trkpt lat="42.279720" lon="-71.409530"><time>2026-04-20T14:56:31Z</time></trkpt>
    <trkpt lat="42.279790" lon="-71.408418"><time>2026-04-20T14:56:58Z</time></trkpt>
    <trkpt lat="42.279860" lon="-71.407307"><time>2026-04-20T14:57:24Z</time></trkpt>
    <trkpt lat="42.279930" lon="-71.406195"><time>2026-04-20T14:57:53Z</time></trkpt>
    <trkpt lat="42.280000" lon="-71.405083"><time>2026-04-20T14:58:28Z</time></trkpt>
    <trkpt lat="42.280070" lon="-71.403972"><time>2026-04-20T14:59:04Z</time></trkpt>
    <trkpt lat="42.280140" lon="-71.402860"><time>2026-04-20T14:59:23Z</time></trkpt>
    <trkpt lat="42.280210" lon="-71.401748"><time>2026-04-20T14:59:50Z</time></trkpt>
    <trkpt lat="42.280280" lon="-71.400637"><time>2026-04-20T15:00:16Z</time></trkpt>
    <trkpt lat="42.280350" lon="-71.399525"><time>2026-04-20T15:00:44Z</time></trkpt>
    <trkpt lat="42.280420" lon="-71.398413"><time>2026-04-20T15:01:10Z</time></trkpt>
    <trkpt lat="42.280490" lon="-71.397302"><time>2026-04-20T15:01:41Z</time></trkpt>
    <trkpt lat="42.280560" lon="-71.396190"><time>2026-04-20T15:02:18Z</time></trkpt>
    <trkpt lat="42.280630" lon="-71.395078"><time>2026-04-20T15:03:08Z</time></trkpt>
    <trkpt lat="42.280700" lon="-71.393967"><time>2026-04-20T15:03:48Z</time></trkpt>
    <trkpt lat="42.280770" lon="-71.392855"><time>2026-04-20T15:04:08Z</time></trkpt>
    <trkpt lat="42.280840" lon="-71.391743"><time>2026-04-20T15:04:29Z</time></trkpt>
    <trkpt lat="42.280910" lon="-71.390632"><time>2026-04-20T15:04:56Z</time></trkpt>
    <trkpt lat="42.280980" lon="-71.389520"><time>2026-04-20T15:05:24Z</time></trkpt>
    <trkpt lat="42.281050" lon="-71.388408"><time>2026-04-20T15:05:50Z</time></trkpt>
    <trkpt lat="42.281120" lon="-71.387297"><time>2026-04-20T15:06:33Z</time></trkpt>
    <trkpt lat="42.281190" lon="-71.386185"><time>2026-04-20T15:07:00Z</time></trkpt>
    <trkpt lat="42.281260" lon="-71.385073"><time>2026-04-20T15:07:22Z</time></trkpt>
    <trkpt lat="42.281330" lon="-71.383962"><time>2026-04-20T15:07:47Z</time></trkpt>
    <trkpt lat="42.281400" lon="-71.382850"><time>2026-04-20T15:08:16Z</time></trkpt>
    <trkpt lat="42.281470" lon="-71.381738"><time>2026-04-20T15:08:45Z</time></trkpt>
    <trkpt lat="42.281540" lon="-71.380627"><time>2026-04-20T15:09:11Z</time></trkpt>
    <trkpt lat="42.281610" lon="-71.379515"><time>2026-04-20T15:09:36Z</time></trkpt>
    <trkpt lat="42.281680" lon="-71.378403"><time>2026-04-20T15:10:03Z</time></trkpt>
    <trkpt lat="42.281750" lon="-71.377292"><time>2026-04-20T15:10:31Z</time></trkpt>
    <trkpt lat="42.281820" lon="-71.376180"><time>2026-04-20T15:10:57Z</time></trkpt>
    <trkpt lat="42.281890" lon="-71.375068"><time>2026-04-20T15:11:20Z</time></trkpt>
    <trkpt lat="42.281960" lon="-71.373957"><time>2026-04-20T15:11:48Z</time></trkpt>
    <trkpt lat="42.282030" lon="-71.372845"><time>2026-04-20T15:12:16Z</time></trkpt>
    <trkpt lat="42.282100" lon="-71.371733"><time>2026-04-20T15:12:44Z</time></trkpt>
    <trkpt lat="42.282170" lon="-71.370622"><time>2026-04-20T15:13:11Z</time></trkpt>
    <trkpt lat="42.282240" lon="-71.369510"><time>2026-04-20T15:13:38Z</time></trkpt>
    <trkpt lat="42.282310" lon="-71.368398"><time>2026-04-20T15:14:05Z</time></trkpt>
    <trkpt lat="42.282380" lon="-71.367287"><time>2026-04-20T15:14:32Z</time></trkpt>
    <trkpt lat="42.282450" lon="-71.366175"><time>2026-04-20T15:14:59Z</time></trkpt>
    <trkpt lat="42.282520" lon="-71.365063"><time>2026-04-20T15:15:27Z</time></trkpt>
    <trkpt lat="42.282590" lon="-71.363952"><time>2026-04-20T15:16:00Z</time></trkpt>
    <trkpt lat="42.282660" lon="-71.362840"><time>2026-04-20T15:16:38Z</time></trkpt>
    <trkpt lat="42.282730" lon="-71.361728"><time>2026-04-20T15:17:05Z</time></trkpt>
    <trkpt lat="42.282800" lon="-71.360617"><time>2026-04-20T15:17:33Z</time></trkpt>
    <trkpt lat="42.282870" lon="-71.359505"><time>2026-04-20T15:18:04Z</time></trkpt>
    <trkpt lat="42.282940" lon="-71.358393"><time>2026-04-20T15:18:36Z</time></trkpt>
    <trkpt lat="42.283010" lon="-71.357282"><time>2026-04-20T15:19:09Z</time></trkpt>
    <trkpt lat="42.283080" lon="-71.356170"><time>2026-04-20T15:19:36Z</time></trkpt>
    <trkpt lat="42.283150" lon="-71.355058"><time>2026-04-20T15:20:02Z</time></trkpt>
    <trkpt lat="42.283220" lon="-71.353947"><time>2026-04-20T15:20:26Z</time></trkpt>
    <trkpt lat="42.283290" lon="-71.352835"><time>2026-04-20T15:20:54Z</time></trkpt>
    <trkpt lat="42.283360" lon="-71.351723"><time>2026-04-20T15:21:25Z</time></trkpt>
    <trkpt lat="42.283430" lon="-71.350612"><time>2026-04-20T15:21:55Z</time></trkpt>
    <trkpt lat="42.283500" lon="-71.349500"><time>2026-04-20T15:22:23Z</time></trkpt>
    <trkpt lat="42.283722" lon="-71.348548"><time>2026-04-20T15:22:48Z</time></trkpt>
    <trkpt lat="42.283943" lon="-71.347597"><time>2026-04-20T15:23:14Z</time></trkpt>
    <trkpt lat="42.284165" lon="-71.346645"><time>2026-04-20T15:23:39Z</time></trkpt>
    <trkpt lat="42.284387" lon="-71.345693"><time>2026-04-20T15:24:05Z</time></trkpt>
    <trkpt lat="42.284608" lon="-71.344742"><time>2026-04-20T15:24:32Z</time></trkpt>
    <trkpt lat="42.284830" lon="-71.343790"><time>2026-04-20T15:24:57Z</time></trkpt>
    <trkpt lat="42.285052" lon="-71.342838"><time>2026-04-20T15:25:20Z</time></trkpt>
    <trkpt lat="42.285273" lon="-71.341887"><time>2026-04-20T15:25:45Z</time></trkpt>
    <trkpt lat="42.285495" lon="-71.340935"><time>2026-04-20T15:26:10Z</time></trkpt>
    <trkpt lat="42.285717" lon="-71.339983"><time>2026-04-20T15:26:35Z</time></trkpt>
    <trkpt lat="42.285938" lon="-71.339032"><time>2026-04-20T15:27:01Z</time></trkpt>
    <trkpt lat="42.286160" lon="-71.338080"><time>2026-04-20T15:27:27Z</time></trkpt>
    <trkpt lat="42.286382" lon="-71.337128"><time>2026-04-20T15:27:54Z</time></trkpt>
    <trkpt lat="42.286603" lon="-71.336177"><time>2026-04-20T15:28:22Z</time></trkpt>
    <trkpt lat="42.286825" lon="-71.335225"><time>2026-04-20T15:28:47Z</time></trkpt>
    <trkpt lat="42.287047" lon="-71.334273"><time>2026-04-20T15:29:12Z</time></trkpt>
    <trkpt lat="42.287268" lon="-71.333322"><time>2026-04-20T15:29:40Z</time></trkpt>
    <trkpt lat="42.287490" lon="-71.332370"><time>2026-04-20T15:30:10Z</time></trkpt>
    <trkpt lat="42.287712" lon="-71.331418"><time>2026-04-20T15:30:34Z</time></trkpt>
    <trkpt lat="42.287933" lon="-71.330467"><time>2026-04-20T15:31:12Z</time></trkpt>
    <trkpt lat="42.288155" lon="-71.329515"><time>2026-04-20T15:31:53Z</time></trkpt>
    <trkpt lat="42.288377" lon="-71.328563"><time>2026-04-20T15:32:31Z</time></trkpt>
    <trkpt lat="42.288598" lon="-71.327612"><time>2026-04-20T15:33:11Z</time></trkpt>
    <trkpt lat="42.288820" lon="-71.326660"><time>2026-04-20T15:33:43Z</time></trkpt>
    <trkpt lat="42.289042" lon="-71.325708"><time>2026-04-20T15:34:04Z</time></trkpt>
    <trkpt lat="42.289263" lon="-71.324757"><time>2026-04-20T15:34:26Z</time></trkpt>
    <trkpt lat="42.289485" lon="-71.323805"><time>2026-04-20T15:34:51Z</time></trkpt>
    <trkpt lat="42.289707" lon="-71.322853"><time>2026-04-20T15:35:18Z</time></trkpt>
    <trkpt lat="42.289928" lon="-71.321902"><time>2026-04-20T15:35:51Z</time></trkpt>
    <trkpt lat="42.290150" lon="-71.320950"><time>2026-04-20T15:36:09Z</time></trkpt>
    <trkpt lat="42.290372" lon="-71.319998"><time>2026-04-20T15:36:26Z</time></trkpt>
    <trkpt lat="42.290593" lon="-71.319047"><time>2026-04-20T15:36:43Z</time></trkpt>
    <trkpt lat="42.290815" lon="-71.318095"><time>2026-04-20T15:36:59Z</time></trkpt>
    <trkpt lat="42.291037" lon="-71.317143"><time>2026-04-20T15:37:17Z</time></trkpt>
    <trkpt lat="42.291258" lon="-71.316192"><time>2026-04-20T15:37:37Z</time></trkpt>
    <trkpt lat="42.291480" lon="-71.315240"><time>2026-04-20T15:37:58Z</time></trkpt>
    <trkpt lat="42.291702" lon="-71.314288"><time>2026-04-20T15:38:21Z</time></trkpt>
    <trkpt lat="42.291923" lon="-71.313337"><time>2026-04-20T15:38:44Z</time></trkpt>
    <trkpt lat="42.292145" lon="-71.312385"><time>2026-04-20T15:39:06Z</time></trkpt>
    <trkpt lat="42.292367" lon="-71.311433"><time>2026-04-20T15:39:29Z</time></trkpt>
    <trkpt lat="42.292588" lon="-71.310482"><time>2026-04-20T15:40:01Z</time></trkpt>
    <trkpt lat="42.292810" lon="-71.309530"><time>2026-04-20T15:40:42Z</time></trkpt>
    <trkpt lat="42.293032" lon="-71.308578"><time>2026-04-20T15:41:15Z</time></trkpt>
    <trkpt lat="42.293253" lon="-71.307627"><time>2026-04-20T15:41:38Z</time></trkpt>
    <trkpt lat="42.293475" lon="-71.306675"><time>2026-04-20T15:42:06Z</time></trkpt>
    <trkpt lat="42.293697" lon="-71.305723"><time>2026-04-20T15:42:33Z</time></trkpt>
    <trkpt lat="42.293918" lon="-71.304772"><time>2026-04-20T15:42:53Z</time></trkpt>
    <trkpt lat="42.294140" lon="-71.303820"><time>2026-04-20T15:43:18Z</time></trkpt>
    <trkpt lat="42.294362" lon="-71.302868"><time>2026-04-20T15:43:46Z</time></trkpt>
    <trkpt lat="42.294583" lon="-71.301917"><time>2026-04-20T15:44:13Z</time></trkpt>
    <trkpt lat="42.294805" lon="-71.300965"><time>2026-04-20T15:44:31Z</time></trkpt>
    <trkpt lat="42.295027" lon="-71.300013"><time>2026-04-20T15:45:21Z</time></trkpt>
    <trkpt lat="42.295248" lon="-71.299062"><time>2026-04-20T15:45:50Z</time></trkpt>
    <trkpt lat="42.295470" lon="-71.298110"><time>2026-04-20T15:46:12Z</time></trkpt>
    <trkpt lat="42.295692" lon="-71.297158"><time>2026-04-20T15:46:35Z</time></trkpt>
    <trkpt lat="42.295913" lon="-71.296207"><time>2026-04-20T15:47:01Z</time></trkpt>
    <trkpt lat="42.296135" lon="-71.295255"><time>2026-04-20T15:47:25Z</time></trkpt>
    <trkpt lat="42.296357" lon="-71.294303"><time>2026-04-20T15:48:24Z</time></trkpt>
    <trkpt lat="42.296578" lon="-71.293352"><time>2026-04-20T15:48:56Z</time></trkpt>
    <trkpt lat="42.296800" lon="-71.292400"><time>2026-04-20T15:49:17Z</time></trkpt>
    <trkpt lat="42.297070" lon="-71.291727"><time>2026-04-20T15:49:35Z</time></trkpt>
    <trkpt lat="42.297340" lon="-71.291053"><time>2026-04-20T15:49:53Z</time></trkpt>
    <trkpt lat="42.297610" lon="-71.290380"><time>2026-04-20T15:50:11Z</time></trkpt>
    <trkpt lat="42.297880" lon="-71.289707"><time>2026-04-20T15:50:30Z</time></trkpt>
    <trkpt lat="42.298150" lon="-71.289033"><time>2026-04-20T15:50:53Z</time></trkpt>
    <trkpt lat="42.298420" lon="-71.288360"><time>2026-04-20T15:51:16Z</time></trkpt>
    <trkpt lat="42.298690" lon="-71.287687"><time>2026-04-20T15:51:37Z</time></trkpt>
    <trkpt lat="42.298960" lon="-71.287013"><time>2026-04-20T15:51:55Z</time></trkpt>
    <trkpt lat="42.299230" lon="-71.286340"><time>2026-04-20T15:52:11Z</time></trkpt>
    <trkpt lat="42.299500" lon="-71.285667"><time>2026-04-20T15:52:28Z</time></trkpt>
    <trkpt lat="42.299770" lon="-71.284993"><time>2026-04-20T15:52:46Z</time></trkpt>
    <trkpt lat="42.300040" lon="-71.284320"><time>2026-04-20T15:53:05Z</time></trkpt>
    <trkpt lat="42.300310" lon="-71.283647"><time>2026-04-20T15:53:25Z</time></trkpt>
    <trkpt lat="42.300580" lon="-71.282973"><time>2026-04-20T15:53:44Z</time></trkpt>
    <trkpt lat="42.300850" lon="-71.282300"><time>2026-04-20T15:54:04Z</time></trkpt>
    <trkpt lat="42.301120" lon="-71.281627"><time>2026-04-20T15:54:22Z</time></trkpt>
    <trkpt lat="42.301390" lon="-71.280953"><time>2026-04-20T15:54:41Z</time></trkpt>
    <trkpt lat="42.301660" lon="-71.280280"><time>2026-04-20T15:55:01Z</time></trkpt>
    <trkpt lat="42.301930" lon="-71.279607"><time>2026-04-20T15:55:20Z</time></trkpt>
    <trkpt lat="42.302200" lon="-71.278933"><time>2026-04-20T15:55:39Z</time></trkpt>
    <trkpt lat="42.302470" lon="-71.278260"><time>2026-04-20T15:55:59Z</time></trkpt>
    <trkpt lat="42.302740" lon="-71.277587"><time>2026-04-20T15:56:24Z</time></trkpt>
    <trkpt lat="42.303010" lon="-71.276913"><time>2026-04-20T15:56:58Z</time></trkpt>
    <trkpt lat="42.303280" lon="-71.276240"><time>2026-04-20T15:57:26Z</time></trkpt>
    <trkpt lat="42.303550" lon="-71.275567"><time>2026-04-20T15:57:52Z</time></trkpt>
    <trkpt lat="42.303820" lon="-71.274893"><time>2026-04-20T15:58:14Z</time></trkpt>
    <trkpt lat="42.304090" lon="-71.274220"><time>2026-04-20T15:58:32Z</time></trkpt>
    <trkpt lat="42.304360" lon="-71.273547"><time>2026-04-20T15:58:48Z</time></trkpt>
    <trkpt lat="42.304630" lon="-71.272873"><time>2026-04-20T15:59:04Z</time></trkpt>
    <trkpt lat="42.304900" lon="-71.272200"><time>2026-04-20T15:59:23Z</time></trkpt>
    <trkpt lat="42.305170" lon="-71.271527"><time>2026-04-20T15:59:45Z</time></trkpt>
    <trkpt lat="42.305440" lon="-71.270853"><time>2026-04-20T16:00:07Z</time></trkpt>
    <trkpt lat="42.305710" lon="-71.270180"><time>2026-04-20T16:00:31Z</time></trkpt>
    <trkpt lat="42.305980" lon="-71.269507"><time>2026-04-20T16:01:00Z</time></trkpt>
    <trkpt lat="42.306250" lon="-71.268833"><time>2026-04-20T16:01:28Z</time></trkpt>
    <trkpt lat="42.306520" lon="-71.268160"><time>2026-04-20T16:01:55Z</time></trkpt>
    <trkpt lat="42.306790" lon="-71.267487"><time>2026-04-20T16:02:17Z</time></trkpt>
    <trkpt lat="42.307060" lon="-71.266813"><time>2026-04-20T16:02:38Z</time></trkpt>
    <trkpt lat="42.307330" lon="-71.266140"><time>2026-04-20T16:02:56Z</time></trkpt>
    <trkpt lat="42.307600" lon="-71.265467"><time>2026-04-20T16:03:12Z</time></trkpt>
    <trkpt lat="42.307870" lon="-71.264793"><time>2026-04-20T16:03:28Z</time></trkpt>
    <trkpt lat="42.308140" lon="-71.264120"><time>2026-04-20T16:03:43Z</time></trkpt>
    <trkpt lat="42.308410" lon="-71.263447"><time>2026-04-20T16:04:00Z</time></trkpt>
    <trkpt lat="42.308680" lon="-71.262773"><time>2026-04-20T16:04:18Z</time></trkpt>
    <trkpt lat="42.308950" lon="-71.262100"><time>2026-04-20T16:04:34Z</time></trkpt>
    <trkpt lat="42.309220" lon="-71.261427"><time>2026-04-20T16:04:50Z</time></trkpt>
    <trkpt lat="42.309490" lon="-71.260753"><time>2026-04-20T16:05:04Z</time></trkpt>
    <trkpt lat="42.309760" lon="-71.260080"><time>2026-04-20T16:05:17Z</time></trkpt>
    <trkpt lat="42.310030" lon="-71.259407"><time>2026-04-20T16:05:31Z</time></trkpt>
    <trkpt lat="42.310300" lon="-71.258733"><time>2026-04-20T16:05:45Z</time></trkpt>
    <trkpt lat="42.310570" lon="-71.258060"><time>2026-04-20T16:06:04Z</time></trkpt>
    <trkpt lat="42.310840" lon="-71.257387"><time>2026-04-20T16:06:23Z</time></trkpt>
    <trkpt lat="42.311110" lon="-71.256713"><time>2026-04-20T16:06:41Z</time></trkpt>
    <trkpt lat="42.311380" lon="-71.256040"><time>2026-04-20T16:06:56Z</time></trkpt>
    <trkpt lat="42.311650" lon="-71.255367"><time>2026-04-20T16:07:11Z</time></trkpt>
    <trkpt lat="42.311920" lon="-71.254693"><time>2026-04-20T16:07:30Z</time></trkpt>
    <trkpt lat="42.312190" lon="-71.254020"><time>2026-04-20T16:07:58Z</time></trkpt>
    <trkpt lat="42.312460" lon="-71.253347"><time>2026-04-20T16:08:37Z</time></trkpt>
    <trkpt lat="42.312730" lon="-71.252673"><time>2026-04-20T16:08:54Z</time></trkpt>
    <trkpt lat="42.313000" lon="-71.252000"><time>2026-04-20T16:09:09Z</time></trkpt>
    <trkpt lat="42.313375" lon="-71.251143"><time>2026-04-20T16:09:31Z</time></trkpt>
    <trkpt lat="42.313750" lon="-71.250287"><time>2026-04-20T16:09:54Z</time></trkpt>
    <trkpt lat="42.314125" lon="-71.249430"><time>2026-04-20T16:10:20Z</time></trkpt>
    <trkpt lat="42.314500" lon="-71.248573"><time>2026-04-20T16:10:50Z</time></trkpt>
    <trkpt lat="42.314875" lon="-71.247717"><time>2026-04-20T16:11:22Z</time></trkpt>
    <trkpt lat="42.315250" lon="-71.246860"><time>2026-04-20T16:11:55Z</time></trkpt>
    <trkpt lat="42.315625" lon="-71.246003"><time>2026-04-20T16:12:16Z</time></trkpt>
    <trkpt lat="42.316000" lon="-71.245147"><time>2026-04-20T16:12:37Z</time></trkpt>
    <trkpt lat="42.316375" lon="-71.244290"><time>2026-04-20T16:12:59Z</time></trkpt>
    <trkpt lat="42.316750" lon="-71.243433"><time>2026-04-20T16:13:19Z</time></trkpt>
    <trkpt lat="42.317125" lon="-71.242577"><time>2026-04-20T16:13:38Z</time></trkpt>
    <trkpt lat="42.317500" lon="-71.241720"><time>2026-04-20T16:14:03Z</time></trkpt>
    <trkpt lat="42.317875" lon="-71.240863"><time>2026-04-20T16:14:28Z</time></trkpt>
    <trkpt lat="42.318250" lon="-71.240007"><time>2026-04-20T16:14:53Z</time></trkpt>
    <trkpt lat="42.318625" lon="-71.239150"><time>2026-04-20T16:15:18Z</time></trkpt>
    <trkpt lat="42.319000" lon="-71.238293"><time>2026-04-20T16:15:43Z</time></trkpt>
    <trkpt lat="42.319375" lon="-71.237437"><time>2026-04-20T16:16:07Z</time></trkpt>
    <trkpt lat="42.319750" lon="-71.236580"><time>2026-04-20T16:16:32Z</time></trkpt>
    <trkpt lat="42.320125" lon="-71.235723"><time>2026-04-20T16:16:58Z</time></trkpt>
    <trkpt lat="42.320500" lon="-71.234867"><time>2026-04-20T16:17:24Z</time></trkpt>
    <trkpt lat="42.320875" lon="-71.234010"><time>2026-04-20T16:17:49Z</time></trkpt>
    <trkpt lat="42.321250" lon="-71.233153"><time>2026-04-20T16:18:13Z</time></trkpt>
    <trkpt lat="42.321625" lon="-71.232297"><time>2026-04-20T16:18:36Z</time></trkpt>
    <trkpt lat="42.322000" lon="-71.231440"><time>2026-04-20T16:19:11Z</time></trkpt>
    <trkpt lat="42.322375" lon="-71.230583"><time>2026-04-20T16:19:49Z</time></trkpt>
    <trkpt lat="42.322750" lon="-71.229727"><time>2026-04-20T16:20:35Z</time></trkpt>
    <trkpt lat="42.323125" lon="-71.228870"><time>2026-04-20T16:21:19Z</time></trkpt>
    <trkpt lat="42.323500" lon="-71.228013"><time>2026-04-20T16:21:46Z</time></trkpt>
    <trkpt lat="42.323875" lon="-71.227157"><time>2026-04-20T16:22:03Z</time></trkpt>
    <trkpt lat="42.324250" lon="-71.226300"><time>2026-04-20T16:22:23Z</time></trkpt>
    <trkpt lat="42.324625" lon="-71.225443"><time>2026-04-20T16:22:50Z</time></trkpt>
    <trkpt lat="42.325000" lon="-71.224587"><time>2026-04-20T16:23:24Z</time></trkpt>
    <trkpt lat="42.325375" lon="-71.223730"><time>2026-04-20T16:24:02Z</time></trkpt>
    <trkpt lat="42.325750" lon="-71.222873"><time>2026-04-20T16:24:30Z</time></trkpt>
    <trkpt lat="42.326125" lon="-71.222017"><time>2026-04-20T16:24:50Z</time></trkpt>
    <trkpt lat="42.326500" lon="-71.221160"><time>2026-04-20T16:25:09Z</time></trkpt>
    <trkpt lat="42.326875" lon="-71.220303"><time>2026-04-20T16:25:31Z</time></trkpt>
    <trkpt lat="42.327250" lon="-71.219447"><time>2026-04-20T16:25:59Z</time></trkpt>
    <trkpt lat="42.327625" lon="-71.218590"><time>2026-04-20T16:26:33Z</time></trkpt>
    <trkpt lat="42.328000" lon="-71.217733"><time>2026-04-20T16:26:54Z</time></trkpt>
    <trkpt lat="42.328375" lon="-71.216877"><time>2026-04-20T16:27:15Z</time></trkpt>
    <trkpt lat="42.328750" lon="-71.216020"><time>2026-04-20T16:27:37Z</time></trkpt>
    <trkpt lat="42.329125" lon="-71.215163"><time>2026-04-20T16:28:01Z</time></trkpt>
    <trkpt lat="42.329500" lon="-71.214307"><time>2026-04-20T16:28:28Z</time></trkpt>
    <trkpt lat="42.329875" lon="-71.213450"><time>2026-04-20T16:29:00Z</time></trkpt>
    <trkpt lat="42.330250" lon="-71.212593"><time>2026-04-20T16:29:21Z</time></trkpt>
    <trkpt lat="42.330625" lon="-71.211737"><time>2026-04-20T16:29:44Z</time></trkpt>
    <trkpt lat="42.331000" lon="-71.210880"><time>2026-04-20T16:30:10Z</time></trkpt>
    <trkpt lat="42.331375" lon="-71.210023"><time>2026-04-20T16:30:39Z</time></trkpt>
    <trkpt lat="42.331750" lon="-71.209167"><time>2026-04-20T16:31:05Z</time></trkpt>
    <trkpt lat="42.332125" lon="-71.208310"><time>2026-04-20T16:31:28Z</time></trkpt>
    <trkpt lat="42.332500" lon="-71.207453"><time>2026-04-20T16:31:53Z</time></trkpt>
    <trkpt lat="42.332875" lon="-71.206597"><time>2026-04-20T16:32:18Z</time></trkpt>
    <trkpt lat="42.333250" lon="-71.205740"><time>2026-04-20T16:32:44Z</time></trkpt>
    <trkpt lat="42.333625" lon="-71.204883"><time>2026-04-20T16:33:09Z</time></trkpt>
    <trkpt lat="42.334000" lon="-71.204027"><time>2026-04-20T16:33:31Z</time></trkpt>
    <trkpt lat="42.334375" lon="-71.203170"><time>2026-04-20T16:33:57Z</time></trkpt>
    <trkpt lat="42.334750" lon="-71.202313"><time>2026-04-20T16:34:26Z</time></trkpt>
    <trkpt lat="42.335125" lon="-71.201457"><time>2026-04-20T16:34:59Z</time></trkpt>
    <trkpt lat="42.335500" lon="-71.200600"><time>2026-04-20T16:35:32Z</time></trkpt>
    <trkpt lat="42.335557" lon="-71.200073"><time>2026-04-20T16:35:47Z</time></trkpt>
    <trkpt lat="42.335613" lon="-71.199547"><time>2026-04-20T16:36:02Z</time></trkpt>
    <trkpt lat="42.335670" lon="-71.199020"><time>2026-04-20T16:36:15Z</time></trkpt>
    <trkpt lat="42.335727" lon="-71.198493"><time>2026-04-20T16:36:27Z</time></trkpt>
    <trkpt lat="42.335783" lon="-71.197967"><time>2026-04-20T16:36:41Z</time></trkpt>
    <trkpt lat="42.335840" lon="-71.197440"><time>2026-04-20T16:36:55Z</time></trkpt>
    <trkpt lat="42.335897" lon="-71.196913"><time>2026-04-20T16:37:08Z</time></trkpt>
    <trkpt lat="42.335953" lon="-71.196387"><time>2026-04-20T16:37:20Z</time></trkpt>
    <trkpt lat="42.336010" lon="-71.195860"><time>2026-04-20T16:37:33Z</time></trkpt>
    <trkpt lat="42.336067" lon="-71.195333"><time>2026-04-20T16:37:46Z</time></trkpt>
    <trkpt lat="42.336123" lon="-71.194807"><time>2026-04-20T16:37:59Z</time></trkpt>
    <trkpt lat="42.336180" lon="-71.194280"><time>2026-04-20T16:38:11Z</time></trkpt>
    <trkpt lat="42.336237" lon="-71.193753"><time>2026-04-20T16:38:24Z</time></trkpt>
    <trkpt lat="42.336293" lon="-71.193227"><time>2026-04-20T16:38:38Z</time></trkpt>
    <trkpt lat="42.336350" lon="-71.192700"><time>2026-04-20T16:38:51Z</time></trkpt>
    <trkpt lat="42.336407" lon="-71.192173"><time>2026-04-20T16:39:04Z</time></trkpt>
    <trkpt lat="42.336463" lon="-71.191647"><time>2026-04-20T16:39:17Z</time></trkpt>
    <trkpt lat="42.336520" lon="-71.191120"><time>2026-04-20T16:39:30Z</time></trkpt>
    <trkpt lat="42.336577" lon="-71.190593"><time>2026-04-20T16:39:44Z</time></trkpt>
    <trkpt lat="42.336633" lon="-71.190067"><time>2026-04-20T16:39:57Z</time></trkpt>
    <trkpt lat="42.336690" lon="-71.189540"><time>2026-04-20T16:40:10Z</time></trkpt>
    <trkpt lat="42.336747" lon="-71.189013"><time>2026-04-20T16:40:23Z</time></trkpt>
    <trkpt lat="42.336803" lon="-71.188487"><time>2026-04-20T16:40:36Z</time></trkpt>
    <trkpt lat="42.336860" lon="-71.187960"><time>2026-04-20T16:40:48Z</time></trkpt>
    <trkpt lat="42.336917" lon="-71.187433"><time>2026-04-20T16:41:01Z</time></trkpt>
    <trkpt lat="42.336973" lon="-71.186907"><time>2026-04-20T16:41:15Z</time></trkpt>
    <trkpt lat="42.337030" lon="-71.186380"><time>2026-04-20T16:41:29Z</time></trkpt>
    <trkpt lat="42.337087" lon="-71.185853"><time>2026-04-20T16:41:46Z</time></trkpt>
    <trkpt lat="42.337143" lon="-71.185327"><time>2026-04-20T16:42:03Z</time></trkpt>
    <trkpt lat="42.337200" lon="-71.184800"><time>2026-04-20T16:42:22Z</time></trkpt>
    <trkpt lat="42.337257" lon="-71.184273"><time>2026-04-20T16:42:41Z</time></trkpt>
    <trkpt lat="42.337313" lon="-71.183747"><time>2026-04-20T16:43:00Z</time></trkpt>
    <trkpt lat="42.337370" lon="-71.183220"><time>2026-04-20T16:43:20Z</time></trkpt>
    <trkpt lat="42.337427" lon="-71.182693"><time>2026-04-20T16:43:39Z</time></trkpt>
    <trkpt lat="42.337483" lon="-71.182167"><time>2026-04-20T16:43:57Z</time></trkpt>
    <trkpt lat="42.337540" lon="-71.181640"><time>2026-04-20T16:44:15Z</time></trkpt>
    <trkpt lat="42.337597" lon="-71.181113"><time>2026-04-20T16:44:33Z</time></trkpt>
    <trkpt lat="42.337653" lon="-71.180587"><time>2026-04-20T16:44:51Z</time></trkpt>
    <trkpt lat="42.337710" lon="-71.180060"><time>2026-04-20T16:45:09Z</time></trkpt>
    <trkpt lat="42.337767" lon="-71.179533"><time>2026-04-20T16:45:27Z</time></trkpt>
    <trkpt lat="42.337823" lon="-71.179007"><time>2026-04-20T16:45:45Z</time></trkpt>
    <trkpt lat="42.337880" lon="-71.178480"><time>2026-04-20T16:46:02Z</time></trkpt>
    <trkpt lat="42.337937" lon="-71.177953"><time>2026-04-20T16:46:19Z</time></trkpt>
    <trkpt lat="42.337993" lon="-71.177427"><time>2026-04-20T16:46:34Z</time></trkpt>
    <trkpt lat="42.338050" lon="-71.176900"><time>2026-04-20T16:46:49Z</time></trkpt>
    <trkpt lat="42.338107" lon="-71.176373"><time>2026-04-20T16:47:05Z</time></trkpt>
    <trkpt lat="42.338163" lon="-71.175847"><time>2026-04-20T16:47:21Z</time></trkpt>
    <trkpt lat="42.338220" lon="-71.175320"><time>2026-04-20T16:47:36Z</time></trkpt>
    <trkpt lat="42.338277" lon="-71.174793"><time>2026-04-20T16:47:49Z</time></trkpt>
    <trkpt lat="42.338333" lon="-71.174267"><time>2026-04-20T16:48:04Z</time></trkpt>
    <trkpt lat="42.338390" lon="-71.173740"><time>2026-04-20T16:48:21Z</time></trkpt>
    <trkpt lat="42.338447" lon="-71.173213"><time>2026-04-20T16:48:37Z</time></trkpt>
    <trkpt lat="42.338503" lon="-71.172687"><time>2026-04-20T16:48:46Z</time></trkpt>
    <trkpt lat="42.338560" lon="-71.172160"><time>2026-04-20T16:48:55Z</time></trkpt>
    <trkpt lat="42.338617" lon="-71.171633"><time>2026-04-20T16:49:04Z</time></trkpt>
    <trkpt lat="42.338673" lon="-71.171107"><time>2026-04-20T16:49:13Z</time></trkpt>
    <trkpt lat="42.338730" lon="-71.170580"><time>2026-04-20T16:49:22Z</time></trkpt>
    <trkpt lat="42.338787" lon="-71.170053"><time>2026-04-20T16:49:30Z</time></trkpt>
    <trkpt lat="42.338843" lon="-71.169527"><time>2026-04-20T16:49:39Z</time></trkpt>
    <trkpt lat="42.338900" lon="-71.169000"><time>2026-04-20T16:49:48Z</time></trkpt>
    <trkpt lat="42.338858" lon="-71.168678"><time>2026-04-20T16:49:54Z</time></trkpt>
    <trkpt lat="42.338817" lon="-71.168357"><time>2026-04-20T16:50:00Z</time></trkpt>
    <trkpt lat="42.338775" lon="-71.168035"><time>2026-04-20T16:50:06Z</time></trkpt>
    <trkpt lat="42.338733" lon="-71.167713"><time>2026-04-20T16:50:13Z</time></trkpt>
    <trkpt lat="42.338692" lon="-71.167392"><time>2026-04-20T16:50:19Z</time></trkpt>
    <trkpt lat="42.338650" lon="-71.167070"><time>2026-04-20T16:50:26Z</time></trkpt>
    <trkpt lat="42.338608" lon="-71.166748"><time>2026-04-20T16:50:35Z</time></trkpt>
    <trkpt lat="42.338567" lon="-71.166427"><time>2026-04-20T16:50:43Z</time></trkpt>
    <trkpt lat="42.338525" lon="-71.166105"><time>2026-04-20T16:50:51Z</time></trkpt>
    <trkpt lat="42.338483" lon="-71.165783"><time>2026-04-20T16:50:59Z</time></trkpt>
    <trkpt lat="42.338442" lon="-71.165462"><time>2026-04-20T16:51:07Z</time></trkpt>
    <trkpt lat="42.338400" lon="-71.165140"><time>2026-04-20T16:51:15Z</time></trkpt>
    <trkpt lat="42.338358" lon="-71.164818"><time>2026-04-20T16:51:23Z</time></trkpt>
    <trkpt lat="42.338317" lon="-71.164497"><time>2026-04-20T16:51:33Z</time></trkpt>
    <trkpt lat="42.338275" lon="-71.164175"><time>2026-04-20T16:51:42Z</time></trkpt>
    <trkpt lat="42.338233" lon="-71.163853"><time>2026-04-20T16:51:52Z</time></trkpt>
    <trkpt lat="42.338192" lon="-71.163532"><time>2026-04-20T16:52:02Z</time></trkpt>
    <trkpt lat="42.338150" lon="-71.163210"><time>2026-04-20T16:52:14Z</time></trkpt>
    <trkpt lat="42.338108" lon="-71.162888"><time>2026-04-20T16:52:26Z</time></trkpt>
    <trkpt lat="42.338067" lon="-71.162567"><time>2026-04-20T16:52:37Z</time></trkpt>
    <trkpt lat="42.338025" lon="-71.162245"><time>2026-04-20T16:52:46Z</time></trkpt>
    <trkpt lat="42.337983" lon="-71.161923"><time>2026-04-20T16:52:53Z</time></trkpt>
    <trkpt lat="42.337942" lon="-71.161602"><time>2026-04-20T16:52:59Z</time></trkpt>
    <trkpt lat="42.337900" lon="-71.161280"><time>2026-04-20T16:53:06Z</time></trkpt>
    <trkpt lat="42.337858" lon="-71.160958"><time>2026-04-20T16:53:16Z</time></trkpt>
    <trkpt lat="42.337817" lon="-71.160637"><time>2026-04-20T16:53:26Z</time></trkpt>
    <trkpt lat="42.337775" lon="-71.160315"><time>2026-04-20T16:53:36Z</time></trkpt>
    <trkpt lat="42.337733" lon="-71.159993"><time>2026-04-20T16:53:46Z</time></trkpt>
    <trkpt lat="42.337692" lon="-71.159672"><time>2026-04-20T16:53:52Z</time></trkpt>
    <trkpt lat="42.337650" lon="-71.159350"><time>2026-04-20T16:53:57Z</time></trkpt>
    <trkpt lat="42.337608" lon="-71.159028"><time>2026-04-20T16:54:03Z</time></trkpt>
    <trkpt lat="42.337567" lon="-71.158707"><time>2026-04-20T16:54:10Z</time></trkpt>
    <trkpt lat="42.337525" lon="-71.158385"><time>2026-04-20T16:54:17Z</time></trkpt>
    <trkpt lat="42.337483" lon="-71.158063"><time>2026-04-20T16:54:24Z</time></trkpt>
    <trkpt lat="42.337442" lon="-71.157742"><time>2026-04-20T16:54:31Z</time></trkpt>
    <trkpt lat="42.337400" lon="-71.157420"><time>2026-04-20T16:54:39Z</time></trkpt>
    <trkpt lat="42.337358" lon="-71.157098"><time>2026-04-20T16:54:47Z</time></trkpt>
    <trkpt lat="42.337317" lon="-71.156777"><time>2026-04-20T16:54:55Z</time></trkpt>
    <trkpt lat="42.337275" lon="-71.156455"><time>2026-04-20T16:55:03Z</time></trkpt>
    <trkpt lat="42.337233" lon="-71.156133"><time>2026-04-20T16:55:11Z</time></trkpt>
    <trkpt lat="42.337192" lon="-71.155812"><time>2026-04-20T16:55:19Z</time></trkpt>
    <trkpt lat="42.337150" lon="-71.155490"><time>2026-04-20T16:55:27Z</time></trkpt>
    <trkpt lat="42.337108" lon="-71.155168"><time>2026-04-20T16:55:36Z</time></trkpt>
    <trkpt lat="42.337067" lon="-71.154847"><time>2026-04-20T16:55:50Z</time></trkpt>
    <trkpt lat="42.337025" lon="-71.154525"><time>2026-04-20T16:56:04Z</time></trkpt>
    <trkpt lat="42.336983" lon="-71.154203"><time>2026-04-20T16:56:18Z</time></trkpt>
    <trkpt lat="42.336942" lon="-71.153882"><time>2026-04-20T16:56:28Z</time></trkpt>
    <trkpt lat="42.336900" lon="-71.153560"><time>2026-04-20T16:56:34Z</time></trkpt>
    <trkpt lat="42.336858" lon="-71.153238"><time>2026-04-20T16:56:41Z</time></trkpt>
    <trkpt lat="42.336817" lon="-71.152917"><time>2026-04-20T16:56:47Z</time></trkpt>
    <trkpt lat="42.336775" lon="-71.152595"><time>2026-04-20T16:56:53Z</time></trkpt>
    <trkpt lat="42.336733" lon="-71.152273"><time>2026-04-20T16:56:59Z</time></trkpt>
    <trkpt lat="42.336692" lon="-71.151952"><time>2026-04-20T16:57:05Z</time></trkpt>
    <trkpt lat="42.336650" lon="-71.151630"><time>2026-04-20T16:57:11Z</time></trkpt>
    <trkpt lat="42.336608" lon="-71.151308"><time>2026-04-20T16:57:19Z</time></trkpt>
    <trkpt lat="42.336567" lon="-71.150987"><time>2026-04-20T16:57:27Z</time></trkpt>
    <trkpt lat="42.336525" lon="-71.150665"><time>2026-04-20T16:57:35Z</time></trkpt>
    <trkpt lat="42.336483" lon="-71.150343"><time>2026-04-20T16:57:43Z</time></trkpt>
    <trkpt lat="42.336442" lon="-71.150022"><time>2026-04-20T16:57:50Z</time></trkpt>
    <trkpt lat="42.336400" lon="-71.149700"><time>2026-04-20T16:57:56Z</time></trkpt>
    <trkpt lat="42.336608" lon="-71.148790"><time>2026-04-20T16:58:17Z</time></trkpt>
    <trkpt lat="42.336817" lon="-71.147880"><time>2026-04-20T16:58:38Z</time></trkpt>
    <trkpt lat="42.337025" lon="-71.146970"><time>2026-04-20T16:59:02Z</time></trkpt>
    <trkpt lat="42.337233" lon="-71.146060"><time>2026-04-20T16:59:25Z</time></trkpt>
    <trkpt lat="42.337442" lon="-71.145150"><time>2026-04-20T16:59:48Z</time></trkpt>
    <trkpt lat="42.337650" lon="-71.144240"><time>2026-04-20T17:00:12Z</time></trkpt>
    <trkpt lat="42.337858" lon="-71.143330"><time>2026-04-20T17:00:36Z</time></trkpt>
    <trkpt lat="42.338067" lon="-71.142420"><time>2026-04-20T17:00:59Z</time></trkpt>
    <trkpt lat="42.338275" lon="-71.141510"><time>2026-04-20T17:01:25Z</time></trkpt>
    <trkpt lat="42.338483" lon="-71.140600"><time>2026-04-20T17:01:52Z</time></trkpt>
    <trkpt lat="42.338692" lon="-71.139690"><time>2026-04-20T17:02:17Z</time></trkpt>
    <trkpt lat="42.338900" lon="-71.138780"><time>2026-04-20T17:02:43Z</time></trkpt>
    <trkpt lat="42.339108" lon="-71.137870"><time>2026-04-20T17:03:09Z</time></trkpt>
    <trkpt lat="42.339317" lon="-71.136960"><time>2026-04-20T17:03:31Z</time></trkpt>
    <trkpt lat="42.339525" lon="-71.136050"><time>2026-04-20T17:03:50Z</time></trkpt>
    <trkpt lat="42.339733" lon="-71.135140"><time>2026-04-20T17:04:10Z</time></trkpt>
    <trkpt lat="42.339942" lon="-71.134230"><time>2026-04-20T17:04:35Z</time></trkpt>
    <trkpt lat="42.340150" lon="-71.133320"><time>2026-04-20T17:05:21Z</time></trkpt>
    <trkpt lat="42.340358" lon="-71.132410"><time>2026-04-20T17:05:55Z</time></trkpt>
    <trkpt lat="42.340567" lon="-71.131500"><time>2026-04-20T17:06:23Z</time></trkpt>
    <trkpt lat="42.340775" lon="-71.130590"><time>2026-04-20T17:06:55Z</time></trkpt>
    <trkpt lat="42.340983" lon="-71.129680"><time>2026-04-20T17:07:17Z</time></trkpt>
    <trkpt lat="42.341192" lon="-71.128770"><time>2026-04-20T17:07:35Z</time></trkpt>
    <trkpt lat="42.341400" lon="-71.127860"><time>2026-04-20T17:07:52Z</time></trkpt>
    <trkpt lat="42.341608" lon="-71.126950"><time>2026-04-20T17:08:09Z</time></trkpt>
    <trkpt lat="42.341817" lon="-71.126040"><time>2026-04-20T17:08:25Z</time></trkpt>
    <trkpt lat="42.342025" lon="-71.125130"><time>2026-04-20T17:08:47Z</time></trkpt>
    <trkpt lat="42.342233" lon="-71.124220"><time>2026-04-20T17:09:09Z</time></trkpt>
    <trkpt lat="42.342442" lon="-71.123310"><time>2026-04-20T17:09:32Z</time></trkpt>
    <trkpt lat="42.342650" lon="-71.122400"><time>2026-04-20T17:09:55Z</time></trkpt>
    <trkpt lat="42.342858" lon="-71.121490"><time>2026-04-20T17:10:18Z</time></trkpt>
    <trkpt lat="42.343067" lon="-71.120580"><time>2026-04-20T17:10:40Z</time></trkpt>
    <trkpt lat="42.343275" lon="-71.119670"><time>2026-04-20T17:11:00Z</time></trkpt>
    <trkpt lat="42.343483" lon="-71.118760"><time>2026-04-20T17:11:20Z</time></trkpt>
    <trkpt lat="42.343692" lon="-71.117850"><time>2026-04-20T17:11:39Z</time></trkpt>
    <trkpt lat="42.343900" lon="-71.116940"><time>2026-04-20T17:12:02Z</time></trkpt>
    <trkpt lat="42.344108" lon="-71.116030"><time>2026-04-20T17:12:25Z</time></trkpt>
    <trkpt lat="42.344317" lon="-71.115120"><time>2026-04-20T17:12:48Z</time></trkpt>
    <trkpt lat="42.344525" lon="-71.114210"><time>2026-04-20T17:13:11Z</time></trkpt>
    <trkpt lat="42.344733" lon="-71.113300"><time>2026-04-20T17:13:33Z</time></trkpt>
    <trkpt lat="42.344942" lon="-71.112390"><time>2026-04-20T17:13:56Z</time></trkpt>
    <trkpt lat="42.345150" lon="-71.111480"><time>2026-04-20T17:14:19Z</time></trkpt>
    <trkpt lat="42.345358" lon="-71.110570"><time>2026-04-20T17:14:41Z</time></trkpt>
    <trkpt lat="42.345567" lon="-71.109660"><time>2026-04-20T17:15:04Z</time></trkpt>
    <trkpt lat="42.345775" lon="-71.108750"><time>2026-04-20T17:15:27Z</time></trkpt>
    <trkpt lat="42.345983" lon="-71.107840"><time>2026-04-20T17:15:51Z</time></trkpt>
    <trkpt lat="42.346192" lon="-71.106930"><time>2026-04-20T17:16:15Z</time></trkpt>
    <trkpt lat="42.346400" lon="-71.106020"><time>2026-04-20T17:16:39Z</time></trkpt>
    <trkpt lat="42.346608" lon="-71.105110"><time>2026-04-20T17:17:03Z</time></trkpt>
    <trkpt lat="42.346817" lon="-71.104200"><time>2026-04-20T17:17:27Z</time></trkpt>
    <trkpt lat="42.347025" lon="-71.103290"><time>2026-04-20T17:17:51Z</time></trkpt>
    <trkpt lat="42.347233" lon="-71.102380"><time>2026-04-20T17:18:16Z</time></trkpt>
    <trkpt lat="42.347442" lon="-71.101470"><time>2026-04-20T17:18:42Z</time></trkpt>
    <trkpt lat="42.347650" lon="-71.100560"><time>2026-04-20T17:19:03Z</time></trkpt>
    <trkpt lat="42.347858" lon="-71.099650"><time>2026-04-20T17:19:27Z</time></trkpt>
    <trkpt lat="42.348067" lon="-71.098740"><time>2026-04-20T17:19:52Z</time></trkpt>
    <trkpt lat="42.348275" lon="-71.097830"><time>2026-04-20T17:20:17Z</time></trkpt>
    <trkpt lat="42.348483" lon="-71.096920"><time>2026-04-20T17:20:39Z</time></trkpt>
    <trkpt lat="42.348692" lon="-71.096010"><time>2026-04-20T17:21:02Z</time></trkpt>
    <trkpt lat="42.348900" lon="-71.095100"><time>2026-04-20T17:21:24Z</time></trkpt>
    <trkpt lat="42.348917" lon="-71.094825"><time>2026-04-20T17:21:30Z</time></trkpt>
    <trkpt lat="42.348933" lon="-71.094550"><time>2026-04-20T17:21:37Z</time></trkpt>
    <trkpt lat="42.348950" lon="-71.094275"><time>2026-04-20T17:21:43Z</time></trkpt>
    <trkpt lat="42.348967" lon="-71.094000"><time>2026-04-20T17:21:50Z</time></trkpt>
    <trkpt lat="42.348983" lon="-71.093725"><time>2026-04-20T17:21:56Z</time></trkpt>
    <trkpt lat="42.349000" lon="-71.093450"><time>2026-04-20T17:22:02Z</time></trkpt>
    <trkpt lat="42.349017" lon="-71.093175"><time>2026-04-20T17:22:09Z</time></trkpt>
    <trkpt lat="42.349033" lon="-71.092900"><time>2026-04-20T17:22:16Z</time></trkpt>
    <trkpt lat="42.349050" lon="-71.092625"><time>2026-04-20T17:22:23Z</time></trkpt>
    <trkpt lat="42.349067" lon="-71.092350"><time>2026-04-20T17:22:29Z</time></trkpt>
    <trkpt lat="42.349083" lon="-71.092075"><time>2026-04-20T17:22:36Z</time></trkpt>
    <trkpt lat="42.349100" lon="-71.091800"><time>2026-04-20T17:22:43Z</time></trkpt>
    <trkpt lat="42.349117" lon="-71.091525"><time>2026-04-20T17:22:50Z</time></trkpt>
    <trkpt lat="42.349133" lon="-71.091250"><time>2026-04-20T17:22:58Z</time></trkpt>
    <trkpt lat="42.349150" lon="-71.090975"><time>2026-04-20T17:23:05Z</time></trkpt>
    <trkpt lat="42.349167" lon="-71.090700"><time>2026-04-20T17:23:12Z</time></trkpt>
    <trkpt lat="42.349183" lon="-71.090425"><time>2026-04-20T17:23:20Z</time></trkpt>
    <trkpt lat="42.349200" lon="-71.090150"><time>2026-04-20T17:23:28Z</time></trkpt>
    <trkpt lat="42.349217" lon="-71.089875"><time>2026-04-20T17:23:35Z</time></trkpt>
    <trkpt lat="42.349233" lon="-71.089600"><time>2026-04-20T17:23:43Z</time></trkpt>
    <trkpt lat="42.349250" lon="-71.089325"><time>2026-04-20T17:23:50Z</time></trkpt>
    <trkpt lat="42.349267" lon="-71.089050"><time>2026-04-20T17:23:57Z</time></trkpt>
    <trkpt lat="42.349283" lon="-71.088775"><time>2026-04-20T17:24:05Z</time></trkpt>
    <trkpt lat="42.349300" lon="-71.088500"><time>2026-04-20T17:24:12Z</time></trkpt>
    <trkpt lat="42.349317" lon="-71.088225"><time>2026-04-20T17:24:19Z</time></trkpt>
    <trkpt lat="42.349333" lon="-71.087950"><time>2026-04-20T17:24:26Z</time></trkpt>
    <trkpt lat="42.349350" lon="-71.087675"><time>2026-04-20T17:24:33Z</time></trkpt>
    <trkpt lat="42.349367" lon="-71.087400"><time>2026-04-20T17:24:40Z</time></trkpt>
    <trkpt lat="42.349383" lon="-71.087125"><time>2026-04-20T17:24:46Z</time></trkpt>
    <trkpt lat="42.349400" lon="-71.086850"><time>2026-04-20T17:24:53Z</time></trkpt>
    <trkpt lat="42.349417" lon="-71.086575"><time>2026-04-20T17:25:00Z</time></trkpt>
    <trkpt lat="42.349433" lon="-71.086300"><time>2026-04-20T17:25:06Z</time></trkpt>
    <trkpt lat="42.349450" lon="-71.086025"><time>2026-04-20T17:25:13Z</time></trkpt>
    <trkpt lat="42.349467" lon="-71.085750"><time>2026-04-20T17:25:20Z</time></trkpt>
    <trkpt lat="42.349483" lon="-71.085475"><time>2026-04-20T17:25:26Z</time></trkpt>
    <trkpt lat="42.349500" lon="-71.085200"><time>2026-04-20T17:25:33Z</time></trkpt>
    <trkpt lat="42.349517" lon="-71.084925"><time>2026-04-20T17:25:40Z</time></trkpt>
    <trkpt lat="42.349533" lon="-71.084650"><time>2026-04-20T17:25:47Z</time></trkpt>
    <trkpt lat="42.349550" lon="-71.084375"><time>2026-04-20T17:25:53Z</time></trkpt>
    <trkpt lat="42.349567" lon="-71.084100"><time>2026-04-20T17:26:00Z</time></trkpt>
    <trkpt lat="42.349583" lon="-71.083825"><time>2026-04-20T17:26:07Z</time></trkpt>
    <trkpt lat="42.349600" lon="-71.083550"><time>2026-04-20T17:26:14Z</time></trkpt>
    <trkpt lat="42.349617" lon="-71.083275"><time>2026-04-20T17:26:20Z</time></trkpt>
    <trkpt lat="42.349633" lon="-71.083000"><time>2026-04-20T17:26:27Z</time></trkpt>
    <trkpt lat="42.349650" lon="-71.082725"><time>2026-04-20T17:26:34Z</time></trkpt>
    <trkpt lat="42.349667" lon="-71.082450"><time>2026-04-20T17:26:41Z</time></trkpt>
    <trkpt lat="42.349683" lon="-71.082175"><time>2026-04-20T17:26:48Z</time></trkpt>
    <trkpt lat="42.349700" lon="-71.081900"><time>2026-04-20T17:26:55Z</time></trkpt>
    <trkpt lat="42.349717" lon="-71.081625"><time>2026-04-20T17:27:02Z</time></trkpt>
    <trkpt lat="42.349733" lon="-71.081350"><time>2026-04-20T17:27:09Z</time></trkpt>
    <trkpt lat="42.349750" lon="-71.081075"><time>2026-04-20T17:27:16Z</time></trkpt>
    <trkpt lat="42.349767" lon="-71.080800"><time>2026-04-20T17:27:23Z</time></trkpt>
    <trkpt lat="42.349783" lon="-71.080525"><time>2026-04-20T17:27:30Z</time></trkpt>
    <trkpt lat="42.349800" lon="-71.080250"><time>2026-04-20T17:27:37Z</time></trkpt>
    <trkpt lat="42.349817" lon="-71.079975"><time>2026-04-20T17:27:44Z</time></trkpt>
    <trkpt lat="42.349833" lon="-71.079700"><time>2026-04-20T17:27:51Z</time></trkpt>
    <trkpt lat="42.349850" lon="-71.079425"><time>2026-04-20T17:27:58Z</time></trkpt>
    <trkpt lat="42.349867" lon="-71.079150"><time>2026-04-20T17:28:05Z</time></trkpt>
    <trkpt lat="42.349883" lon="-71.078875"><time>2026-04-20T17:28:12Z</time></trkpt>
    <trkpt lat="42.349900" lon="-71.078600"><time>2026-04-20T17:28:19Z</time></trkpt>
  </trkseg></trk>
</gpx>
